{"epoch":1784710044,"count":18256,"objects":[{"id":"38867","name":"INTELSAT 23","type":"PAYLOAD","l1":"1 38867U 12057A   26202.46326117 -.00000283  00000-0  00000-0 0  9993","l2":"2 38867   0.0330 271.1664 0000206 281.9348 219.8942  1.00269807 50294"},{"id":"39360","name":"SIRIUS FM-6","type":"PAYLOAD","l1":"1 39360U 13058A   26202.59330856 -.00000014  00000-0  00000-0 0  9995","l2":"2 39360   0.0081  32.7216 0001278 146.1239 217.7330  1.00269445 46416"},{"id":"40271","name":"INTELSAT 30","type":"PAYLOAD","l1":"1 40271U 14062A   26202.59746859 -.00000149  00000-0  00000-0 0  9997","l2":"2 40271   0.0154  53.0187 0001651 344.2948  22.0820  1.00270383  7136"},{"id":"40333","name":"DIRECTV 14","type":"PAYLOAD","l1":"1 40333U 14078B   26202.26192147 -.00000124  00000-0  00000-0 0  9995","l2":"2 40333   0.0134  55.3576 0000393 345.1303 253.5798  1.00271967 42387"},{"id":"40663","name":"DIRECTV 15","type":"PAYLOAD","l1":"1 40663U 15026A   26202.26086314 -.00000102  00000-0  00000-0 0  9999","l2":"2 40663   0.0217  79.8049 0000392 342.4285 227.8140  1.00271805 40800"},{"id":"40664","name":"SKY MEXICO-1","type":"PAYLOAD","l1":"1 40664U 15026B   26202.52946104 -.00000233  00000-0  00000-0 0  9996","l2":"2 40664   0.0231 290.0620 0002663 204.0521 276.9784  1.00270760 40794"},{"id":"40874","name":"INTELSAT 34","type":"PAYLOAD","l1":"1 40874U 15039A   26202.46274117 -.00000284  00000-0  00000-0 0  9990","l2":"2 40874   0.0115 346.9436 0000573  48.8228  14.5538  1.00271014 39974"},{"id":"41581","name":"INTELSAT 31","type":"PAYLOAD","l1":"1 41581U 16035A   26202.63023006 -.00000149  00000-0  00000-0 0  9991","l2":"2 41581   0.0195 278.1031 0000959  35.3919 117.7253  1.00271004 37024"},{"id":"41747","name":"INTELSAT 36","type":"PAYLOAD","l1":"1 41747U 16053A   26202.62984459 -.00000022  00000-0  00000-0 0  9992","l2":"2 41747   0.0099  29.8811 0002435 320.6101 244.1308  1.00272007 36302"},{"id":"41945","name":"INTELSAT 32E","type":"PAYLOAD","l1":"1 41945U 17007B   26202.53613441 -.00000267  00000-0  00000-0 0  9993","l2":"2 41945   0.0120  30.5077 0000570  15.3316  43.2772  1.00270121 34579"},{"id":"42818","name":"INTELSAT 35E","type":"PAYLOAD","l1":"1 42818U 17041A   26202.46690119  .00000000  00000-0  00000-0 0  9994","l2":"2 42818   0.0227  58.5568 0002193  60.8879 313.3792  1.00269704 33155"},{"id":"42950","name":"INTELSAT 37E","type":"PAYLOAD","l1":"1 42950U 17059A   26202.61263534 -.00000139  00000-0  00000-0 0  9998","l2":"2 42950   0.0179  70.2582 0002878  54.3448  17.3140  1.00272510 32410"},{"id":"43632","name":"AZERSPACE 2/INTELSAT 38","type":"PAYLOAD","l1":"1 43632U 18074A   26202.62525125  .00000138  00000-0  00000-0 0  9990","l2":"2 43632   0.0182  61.0535 0001528  57.6940  90.8314  1.00272527 28795"},{"id":"43633","name":"HORIZONS 3E","type":"PAYLOAD","l1":"1 43633U 18074B   26202.57848850 -.00000029  00000-0  00000-0 0  9998","l2":"2 43633   0.0403 242.3038 0000404  61.3360  12.9358  1.00271974 28680"},{"id":"44333","name":"AT&T T-16","type":"PAYLOAD","l1":"1 44333U 19034A   26202.59634192 -.00000113  00000-0  00000-0 0  9991","l2":"2 44333   0.0147  76.3413 0000507 295.0648  41.7632  1.00269704 25976"},{"id":"44476","name":"INTELSAT 39","type":"PAYLOAD","l1":"1 44476U 19049B   26202.66146116  .00000035  00000-0  00000-0 0  9999","l2":"2 44476   0.0128  29.3318 0000965 329.8620 240.2933  1.00271188 25473"},{"id":"46114","name":"GALAXY 30","type":"PAYLOAD","l1":"1 46114U 20056C   26202.59157523  .00000039  00000-0  00000-0 0  9990","l2":"2 46114   0.0168  64.3610 0002195  52.3892 270.5573  1.00270965 21630"},{"id":"54026","name":"GALAXY 33","type":"PAYLOAD","l1":"1 54026U 22128A   26202.59001522  .00000080  00000-0  00000-0 0  9996","l2":"2 54026   0.0126 333.0518 0001840 150.1534 255.5482  1.00276086 14087"},{"id":"54027","name":"GALAXY 34","type":"PAYLOAD","l1":"1 54027U 22128B   26202.27892093  .00000000  00000-0  00000-0 0  9995","l2":"2 54027   0.0185  51.6472 0001802  61.4659 157.3495  1.00274407 14252"},{"id":"54243","name":"GALAXY 31","type":"PAYLOAD","l1":"1 54243U 22153A   26202.59235523  .00000015  00000-0  00000-0 0  9993","l2":"2 54243   0.0048 247.1499 0001346 235.3527 269.0859  1.00273320  7474"},{"id":"54244","name":"GALAXY 32","type":"PAYLOAD","l1":"1 54244U 22153B   26202.59833527 -.00000172  00000-0  00000-0 0  9997","l2":"2 54244   0.0094  35.9806 0001486  18.2621   9.5143  1.00271821 13484"},{"id":"54741","name":"GALAXY 35","type":"PAYLOAD","l1":"1 54741U 22170A   26202.59790192 -.00000160  00000-0  00000-0 0  9995","l2":"2 54741   0.0083 293.9220 0001988 183.2891 304.2788  1.00270363 13232"},{"id":"54742","name":"GALAXY 36","type":"PAYLOAD","l1":"1 54742U 22170B   26202.59868193 -.00000183  00000-0  00000-0 0  9998","l2":"2 54742   0.0210 131.6980 0002763 329.3006 324.8799  1.00271632 13116"},{"id":"57493","name":"GALAXY 37","type":"PAYLOAD","l1":"1 57493U 23112A   26202.59114189  .00000050  00000-0  00000-0 0  9992","l2":"2 57493   0.0179  61.2071 0002088  56.2976 267.6512  1.00272881 10882"}]}