OBJECT_NAME,OBJECT_ID,EPOCH,MEAN_MOTION,ECCENTRICITY,INCLINATION,RA_OF_ASC_NODE,ARG_OF_PERICENTER,MEAN_ANOMALY,EPHEMERIS_TYPE,CLASSIFICATION_TYPE,NORAD_CAT_ID,ELEMENT_SET_NO,REV_AT_EPOCH,BSTAR,MEAN_MOTION_DOT,MEAN_MOTION_DDOT
INTELSAT 23 (IS-23),2012-057A,2026-07-21T11:07:05.765088,1.00269807,.00002056,0.0330,271.1664,281.9348,219.8942,0,U,38867,999,5029,0,-.283E-5,0
FM-6,2013-058A,2026-07-21T14:14:21.859584,1.00269445,.00012784,0.0081,32.7216,146.1239,217.7330,0,U,39360,999,4641,0,-.14E-6,0
INTELSAT 30 (IS-30),2014-062A,2026-07-21T14:20:21.286176,1.00270383,.00016508,0.0154,53.0187,344.2948,22.0820,0,U,40271,999,713,0,-.149E-5,0
DIRECTV 14,2014-078B,2026-07-21T06:17:10.015008,1.00271967,.0000393,0.0134,55.3576,345.1303,253.5798,0,U,40333,999,4238,0,-.124E-5,0
DIRECTV 15,2015-026A,2026-07-21T06:15:38.575296,1.00271805,.0000392,0.0217,79.8049,342.4285,227.8140,0,U,40663,999,4080,0,-.102E-5,0
SKY MEXICO-1,2015-026B,2026-07-21T12:42:25.433856,1.00270760,.0002663,0.0231,290.0620,204.0521,276.9784,0,U,40664,999,4079,0,-.233E-5,0
INTELSAT 34 (IS-34),2015-039A,2026-07-21T11:06:20.837088,1.00271014,.00005726,0.0115,346.9436,48.8228,14.5538,0,U,40874,999,3997,0,-.284E-5,0
INTELSAT 31 (IS-31),2016-035A,2026-07-21T15:07:31.877184,1.00271004,.00009591,0.0195,278.1031,35.3919,117.7253,0,U,41581,999,3702,0,-.149E-5,0
INTELSAT 36 (IS-36),2016-053A,2026-07-21T15:06:58.572576,1.00272007,.00024355,0.0099,29.8811,320.6101,244.1308,0,U,41747,999,3630,0,-.22E-6,0
INTELSAT 32E (IS-32E),2017-007B,2026-07-21T12:52:02.013024,1.00270121,.00005696,0.0120,30.5077,15.3316,43.2772,0,U,41945,999,3457,0,-.267E-5,0
INTELSAT 35E (IS-35E),2017-041A,2026-07-21T11:12:20.262816,1.00269704,.0002193,0.0227,58.5568,60.8879,313.3792,0,U,42818,999,3315,0,0,0
INTELSAT 37E (IS-37E),2017-059A,2026-07-21T14:42:11.693376,1.00272510,.00028785,0.0179,70.2582,54.3448,17.3140,0,U,42950,999,3241,0,-.139E-5,0
AZERSPACE 2 (IS-38),2018-074A,2026-07-21T15:00:21.708000,1.00272527,.00015282,0.0182,61.0535,57.6940,90.8314,0,U,43632,999,2879,0,.138E-5,0
HORIZONS-3E,2018-074B,2026-07-21T13:53:01.406400,1.00271974,.00004035,0.0403,242.3038,61.3360,12.9358,0,U,43633,999,2868,0,-.29E-6,0
AT&T T-16,2019-034A,2026-07-21T14:18:43.941888,1.00269704,.00005068,0.0147,76.3413,295.0648,41.7632,0,U,44333,999,2597,0,-.113E-5,0
INTELSAT 39 (IS-39),2019-049B,2026-07-21T15:52:30.244224,1.00271188,.00009651,0.0128,29.3318,329.8620,240.2933,0,U,44476,999,2547,0,.35E-6,0
GALAXY 30 (G-30),2020-056C,2026-07-21T14:11:52.099872,1.00270965,.00021953,0.0168,64.3610,52.3892,270.5573,0,U,46114,999,2163,0,.39E-6,0
GALAXY 33 (G-33),2022-128A,2026-07-21T14:09:37.315008,1.00276086,.00018399,0.0126,333.0518,150.1534,255.5482,0,U,54026,999,1408,0,.8E-6,0
GALAXY 34 (G-34),2022-128B,2026-07-21T06:41:38.768352,1.00274407,.00018017,0.0185,51.6472,61.4659,157.3495,0,U,54027,999,1425,0,0,0
GALAXY 31 (G-31),2022-153A,2026-07-21T14:12:59.491872,1.00273320,.00013464,0.0048,247.1499,235.3527,269.0859,0,U,54243,999,747,0,.15E-6,0
GALAXY 32 (G-32),2022-153B,2026-07-21T14:21:36.167328,1.00271821,.00014862,0.0094,35.9806,18.2621,9.5143,0,U,54244,999,1348,0,-.172E-5,0
GALAXY 35 (G-35),2022-170A,2026-07-21T14:20:58.725888,1.00270363,.00019876,0.0083,293.9220,183.2891,304.2788,0,U,54741,999,1323,0,-.16E-5,0
GALAXY 36 (G-36),2022-170B,2026-07-21T14:22:06.118752,1.00271632,.00027633,0.0210,131.6980,329.3006,324.8799,0,U,54742,999,1311,0,-.183E-5,0
GALAXY 37 (G-37),2023-112A,2026-07-21T14:11:14.659296,1.00272881,.00020883,0.0179,61.2071,56.2976,267.6512,0,U,57493,999,1088,0,.5E-6,0
